(Created with emc2b post processor 2026/05/16 17:53)
(tool change to 2.999 mm Bohrer)
T1 M06 G43
G17 G90 G21
(Zeichnung 2)
G00 X-5.774 Y10 S7000 M03
Z5
G01 Z-4 F50
X-5.773 Y10 
X-5.774 Y10 
G00 Z5
G90
(Zeichnung 3)
X0 Y10.001 S7000 M03
G01 Z-4 
X0 Y10 
X0 Y10.001 
G00 Z5
G90
(Zeichnung 4)
X5.774 Y10 S7000 M03
G01 Z-4 
X5.773 Y10 
X5.774 Y10 
G00 Z5
G90
(Zeichnung 5)
X-8.66 Y5 S7000 M03
G01 Z-4 
X-8.661 Y5 
X-8.66 Y5 
G00 Z5
G90
(Zeichnung 6)
X-2.887 Y5 S7000 M03
G01 Z-4 
X-2.886 Y5 
X-2.887 Y5 
G00 Z5
G90
(Zeichnung 7)
X2.887 Y5.001 S7000 M03
G01 Z-4 
X2.887 Y5 
X2.886 Y5 
G02 X2.887 Y5.001 I0.001 J0 
G00 Z5
G90
(Zeichnung 8)
X8.66 Y4.999 S7000 M03
G01 Z-4 
X8.66 Y5 
X8.661 Y5 
G02 X8.66 Y4.999 I-0.001 J0 
G00 Z5
G90
(Zeichnung 9)
X-11.547 Y0 S7000 M03
G01 Z-4 
X-11.548 Y0 
X-11.547 Y0 
G00 Z5
G90
(Zeichnung 10)
X-5.774 Y0 S7000 M03
G01 Z-4 
X-5.773 Y0 
X-5.774 Y0 
G00 Z5
G90
(Zeichnung 11)
X0 Y0 S7000 M03
G01 Z-4 
G00 Z5
G90
(Zeichnung 12)
X5.774 Y0 S7000 M03
G01 Z-4 
X5.773 Y0 
X5.774 Y0 
G00 Z5
G90
(Zeichnung 13)
X11.547 Y0 S7000 M03
G01 Z-4 
X11.548 Y0 
X11.547 Y0 
G00 Z5
G90
(Zeichnung 14)
X-8.66 Y-5.001 S7000 M03
G01 Z-4 
G02 X-8.661 Y-5 I0 J0 
G01 X-8.66 Y-5 
X-8.66 Y-5.001 
G00 Z5
G90
(Zeichnung 15)
X-2.887 Y-5.001 S7000 M03
G01 Z-4 
X-2.887 Y-5 
X-2.886 Y-5 
G02 X-2.887 Y-5.001 I0 J0 
G00 Z5
G90
(Zeichnung 16)
X2.887 Y-5 S7000 M03
G01 Z-4 
X2.886 Y-5 
X2.887 Y-5 
G00 Z5
G90
(Zeichnung 17)
X8.66 Y-5.001 S7000 M03
G01 Z-4 
X8.66 Y-5 
X8.661 Y-5 
G02 X8.66 Y-5.001 I-0.001 J0 
G00 Z5
G90
(Zeichnung 18)
X-5.774 Y-10.001 S7000 M03
G01 Z-4 
X-5.774 Y-10 
X-5.773 Y-10 
G02 X-5.774 Y-10.001 I0 J0 
G00 Z5
G90
(Zeichnung 19)
X0 Y-10.001 S7000 M03
G01 Z-4 
X0 Y-10 
X0 Y-10.001 
G00 Z5
G90
(Zeichnung 20)
X5.774 Y-10.001 S7000 M03
G01 Z-4 
G02 X5.773 Y-10 I0 J0.001 
G01 X5.774 Y-10 
X5.774 Y-10.001 
G00 Z5
T0 M06 M02
